NORAD_CAT_ID,OBJECT_NAME,OBJECT_TYPE,EPOCH,MEAN_MOTION,ECCENTRICITY,INCLINATION,RA_OF_ASC_NODE,ARG_OF_PERICENTER,MEAN_ANOMALY,BSTAR,MEAN_MOTION_DOT,MEAN_MOTION_DDOT,TLE_LINE0,TLE_LINE1,TLE_LINE2,SEMIMAJOR_AXIS,PERIOD,APOGEE,PERIGEE,DECAYED
50204.0,STARLINK-3254,PAYLOAD,2024-02-28 10:21:06,15.0883999,0.0001507,53.2186,322.2839,94.4003,265.7161,-4.5165e-05,-1.007e-05,0.0,0 STARLINK-3254,1 50204U 21125BA  24059.43132561 -.00001007  00000-0 -45165-4 0  9992,2 50204  53.2186 322.2839 0001507  94.4003 265.7161 15.08839990125031,6917.88,95.438,540.788,538.703,0.0
50204.0,STARLINK-3254,PAYLOAD,2024-02-28 21:28:48,15.08835744,0.0001514,53.218,320.2022,99.0356,261.0808,7.1454e-05,8.49e-06,0.0,0 STARLINK-3254,1 50204U 21125BA  24059.89501094  .00000849  00000-0  71454-4 0  9994,2 50204  53.2180 320.2022 0001514  99.0356 261.0808 15.08835744125105,6917.893,95.438,540.806,538.711,0.0
50204.0,STARLINK-3254,PAYLOAD,2024-02-29 03:50:21,15.08842514,0.0001422,53.2175,319.0112,96.4437,263.6717,0.00016599,2.355e-05,0.0,0 STARLINK-3254,1 50204U 21125BA  24060.15996867  .00002355  00000-0  16599-3 0  9993,2 50204  53.2175 319.0112 0001422  96.4437 263.6717 15.08842514122011,6917.873,95.437,540.721,538.754,0.0
50204.0,STARLINK-3254,PAYLOAD,2024-02-29 10:11:54,15.08839844,0.0001512,53.2178,317.8212,89.5313,270.5852,0.00011431,1.532e-05,0.0,0 STARLINK-3254,1 50204U 21125BA  24060.42493099  .00001532  00000-0  11431-3 0  9998,2 50204  53.2178 317.8212 0001512  89.5313 270.5852 15.08839844125187,6917.881,95.438,540.792,538.7,0.0
50204.0,STARLINK-3254,PAYLOAD,2024-02-29 21:19:35,15.08844735,0.0001538,53.2177,315.7393,89.2478,270.8691,0.00017828,2.551e-05,0.0,0 STARLINK-3254,1 50204U 21125BA  24060.88860877  .00002551  00000-0  17828-3 0  9998,2 50204  53.2177 315.7393 0001538  89.2478 270.8691 15.08844735125257,6917.866,95.437,540.795,538.667,0.0
50204.0,STARLINK-3254,PAYLOAD,2024-03-01 10:02:40,15.08844735,0.0001445,53.2162,313.3614,85.7849,274.3308,0.00017598,2.514e-05,0.0,0 STARLINK-3254,1 50204U 21125BA  24061.41852885  .00002514  00000-0  17598-3 0  9991,2 50204  53.2162 313.3614 0001445  85.7849 274.3308 15.08844735125334,6917.866,95.437,540.731,538.731,0.0
50204.0,STARLINK-3254,PAYLOAD,2024-03-01 21:10:22,15.08843754,0.0001576,53.217,311.2784,87.6944,272.4229,0.00014862,2.078e-05,0.0,0 STARLINK-3254,1 50204U 21125BA  24061.88220932  .00002078  00000-0  14862-3 0  9990,2 50204  53.2170 311.2784 0001576  87.6944 272.4229 15.08843754125409,6917.869,95.437,540.824,538.644,0.0
50204.0,STARLINK-3254,PAYLOAD,2024-03-02 00:21:09,15.08845384,0.0001443,53.2169,310.6824,90.5347,269.581,0.00013397,1.845e-05,0.0,0 STARLINK-3254,1 50204U 21125BA  24062.01468777  .00001845  00000-0  13397-3 0  9990,2 50204  53.2169 310.6824 0001443  90.5347 269.5810 15.08845384125424,6917.864,95.437,540.727,538.731,0.0
50204.0,STARLINK-3254,PAYLOAD,2024-03-02 22:36:32,15.08848054,0.000144,53.2174,306.5186,97.7359,262.3796,7.5209e-05,9.09e-06,0.0,0 STARLINK-3254,1 50204U 21125BA  24062.94204581  .00000909  00000-0  75209-4 0  9994,2 50204  53.2174 306.5186 0001440  97.7359 262.3796 15.08848054125560,6917.856,95.437,540.717,538.725,0.0
50204.0,STARLINK-3254,PAYLOAD,2024-03-03 09:44:14,15.08843984,0.0001445,53.2169,304.4391,87.1181,272.9976,5.1989e-05,5.4e-06,0.0,0 STARLINK-3254,1 50204U 21125BA  24063.40572828  .00000540  00000-0  51989-4 0  9998,2 50204  53.2169 304.4391 0001445  87.1181 272.9976 15.08843984122505,6917.868,95.437,540.733,538.734,0.0
50204.0,STARLINK-3254,PAYLOAD,2024-03-03 20:51:57,15.0884112,0.0001635,53.2177,302.3588,84.9991,275.1188,0.00011163,1.489e-05,0.0,0 STARLINK-3254,1 50204U 21125BA  24063.86941229  .00001489  00000-0  11163-3 0  9995,2 50204  53.2177 302.3588 0001635  84.9991 275.1188 15.08841120125709,6917.877,95.437,540.873,538.611,0.0
50204.0,STARLINK-3254,PAYLOAD,2024-03-04 01:38:06,15.08845735,0.0001727,53.2181,301.4608,117.5906,242.5262,6.4736e-05,7.43e-06,0.0,0 STARLINK-3254,1 50204U 21125BA  24064.06812603  .00000743  00000-0  64736-4 0  9998,2 50204  53.2181 301.4608 0001727 117.5906 242.5262 15.08845735125738,6917.863,95.437,540.923,538.533,0.0
50204.0,STARLINK-3254,PAYLOAD,2024-03-04 20:42:43,15.08850903,0.0001715,53.2176,297.8932,116.862,243.2548,0.00026436,3.923e-05,0.0,0 STARLINK-3254,1 50204U 21125BA  24064.86300067  .00003923  00000-0  26436-3 0  9999,2 50204  53.2176 297.8932 0001715 116.8620 243.2548 15.08850903122726,6917.847,95.437,540.898,538.526,0.0
50204.0,STARLINK-3254,PAYLOAD,2024-03-04 22:18:06,15.08852963,0.000132,53.2163,297.598,91.3594,268.7549,0.00027619,4.112e-05,0.0,0 STARLINK-3254,1 50204U 21125BA  24064.92924053  .00004112  00000-0  27619-3 0  9998,2 50204  53.2163 297.5980 0001320  91.3594 268.7549 15.08852963125860,6917.841,95.437,540.619,538.793,0.0
50204.0,STARLINK-3254,PAYLOAD,2024-03-05 01:28:52,15.08855228,0.0001352,53.2164,297.0028,90.9351,269.1796,0.00029575,4.424e-05,0.0,0 STARLINK-3254,1 50204U 21125BA  24065.06171850  .00004424  00000-0  29575-3 0  9992,2 50204  53.2164 297.0028 0001352  90.9351 269.1796 15.08855228125888,6917.834,95.437,540.634,538.764,0.0
50204.0,STARLINK-3254,PAYLOAD,2024-03-05 20:33:31,15.08828548,0.0001521,53.2173,293.4373,87.3468,272.7698,-0.00019882,-3.45e-05,0.0,0 STARLINK-3254,1 50204U 21125BA  24065.85661247 -.00003450  00000-0 -19882-3 0  9993,2 50204  53.2173 293.4373 0001521  87.3468 272.7698 15.08828548122870,6917.915,95.438,540.833,538.728,0.0
50204.0,STARLINK-3254,PAYLOAD,2024-03-06 14:02:45,15.0884039,0.0001108,53.2166,290.1641,93.3434,266.7685,9.1939e-05,1.176e-05,0.0,0 STARLINK-3254,1 50204U 21125BA  24066.58524943  .00001176  00000-0  91939-4 0  9990,2 50204  53.2166 290.1641 0001108  93.3434 266.7685 15.08840390126114,6917.879,95.438,540.511,538.978,0.0
50204.0,STARLINK-3254,PAYLOAD,2024-03-06 20:24:17,15.08850237,0.0001202,53.2162,288.977,79.9636,280.1492,0.0004192,6.392e-05,0.0,0 STARLINK-3254,1 50204U 21125BA  24066.85020664  .00006392  00000-0  41920-3 0  9990,2 50204  53.2162 288.9770 0001202  79.9636 280.1492 15.08850237123021,6917.849,95.437,540.546,538.883,0.0
50204.0,STARLINK-3254,PAYLOAD,2024-03-07 09:07:22,15.08817822,0.0001144,53.2166,286.5987,109.4759,250.6356,-0.0013693,-0.00022001,0.0,0 STARLINK-3254,1 50204U 21125BA  24067.38012542 -.00022001  00000-0 -13693-2 0  9997,2 50204  53.2166 286.5987 0001144 109.4759 250.6356 15.08817822126239,6917.948,95.439,540.605,539.022,0.0
50204.0,STARLINK-3254,PAYLOAD,2024-03-08 23:16:38,15.08853161,0.0001187,53.2144,279.4621,94.6254,265.4873,0.0011062,0.00017367,0.0,0 STARLINK-3254,1 50204U 21125BA  24068.96989477  .00017367  00000-0  11062-2 0  9997,2 50204  53.2144 279.4621 0001187  94.6254 265.4873 15.08853161123346,6917.84,95.437,540.526,538.884,0.0
50204.0,STARLINK-3254,PAYLOAD,2024-03-09 13:35:07,15.08845691,0.0002195,53.2137,276.7857,81.79,278.3341,0.00047333,7.254e-05,0.0,0 STARLINK-3254,1 50204U 21125BA  24069.56605799  .00007254  00000-0  47333-3 0  9991,2 50204  53.2137 276.7857 0002195  81.7900 278.3341 15.08845691123436,6917.863,95.437,541.246,538.21,0.0
50204.0,STARLINK-3254,PAYLOAD,2024-03-09 19:56:39,15.0884242,0.0001196,53.2139,275.5956,90.8783,269.2346,0.00029085,4.344e-05,0.0,0 STARLINK-3254,1 50204U 21125BA  24069.83101744  .00004344  00000-0  29085-3 0  9993,2 50204  53.2139 275.5956 0001196  90.8783 269.2346 15.08842420123470,6917.873,95.437,540.565,538.911,0.0
50204.0,STARLINK-3254,PAYLOAD,2024-03-10 07:04:21,15.08847923,0.0001113,53.2135,273.5127,91.6513,268.4607,0.00069582,0.00010806,0.0,0 STARLINK-3254,1 50204U 21125BA  24070.29469596  .00010806  00000-0  69582-3 0  9993,2 50204  53.2135 273.5127 0001113  91.6513 268.4607 15.08847923126672,6917.856,95.437,540.491,538.951,0.0
50204.0,STARLINK-3254,PAYLOAD,2024-03-10 19:47:27,15.08843594,0.0001335,53.2155,271.1327,94.1316,265.9829,0.00049502,7.6e-05,0.0,0 STARLINK-3254,1 50204U 21125BA  24070.82461835  .00007600  00000-0  49502-3 0  9998,2 50204  53.2155 271.1327 0001335  94.1316 265.9829 15.08843594123625,6917.869,95.437,540.658,538.811,0.0
50204.0,STARLINK-3254,PAYLOAD,2024-03-11 13:16:41,15.08844845,0.0001328,53.2139,267.8619,88.5708,271.5436,0.00048471,7.436e-05,0.0,0 STARLINK-3254,1 50204U 21125BA  24071.55325909  .00007436  00000-0  48471-3 0  9991,2 50204  53.2139 267.8619 0001328  88.5708 271.5436 15.08844845123736,6917.866,95.437,540.649,538.812,0.0
50204.0,STARLINK-3254,PAYLOAD,2024-03-12 13:07:28,15.08842435,0.0001376,53.2155,263.4013,90.0642,270.0508,0.00016756,2.38e-05,0.0,0 STARLINK-3254,1 50204U 21125BA  24072.54685939  .00002380  00000-0  16756-3 0  9997,2 50204  53.2155 263.4013 0001376  90.0642 270.0508 15.08842435123885,6917.873,95.437,540.69,538.786,0.0
50204.0,STARLINK-3254,PAYLOAD,2024-03-12 19:29:01,15.08839954,8.48e-05,53.2151,262.2122,72.13,287.9784,0.00012455,1.695e-05,0.0,0 STARLINK-3254,1 50204U 21125BA  24072.81182047  .00001695  00000-0  12455-3 0  9999,2 50204  53.2151 262.2122 0000848  72.1300 287.9784 15.08839954127052,6917.881,95.438,540.332,539.159,0.0
50204.0,STARLINK-3254,PAYLOAD,2024-03-13 12:58:15,15.08843009,0.0001417,53.2165,258.941,83.8694,276.246,0.00014245,1.98e-05,0.0,0 STARLINK-3254,1 50204U 21125BA  24073.54046000  .00001980  00000-0  14245-3 0  9994,2 50204  53.2165 258.9410 0001417  83.8694 276.2460 15.08843009127167,6917.871,95.437,540.716,538.756,0.0
50204.0,STARLINK-3254,PAYLOAD,2024-03-13 19:19:48,15.08839736,6.27e-05,53.2101,257.7482,48.1261,311.9784,0.00011854,1.599e-05,0.0,0 STARLINK-3254,1 50204U 21125BA  24073.80542055  .00001599  00000-0  11854-3 0  9993,2 50204  53.2101 257.7482 0000627  48.1261 311.9784 15.08839736124074,6917.881,95.438,540.18,539.312,0.0
50204.0,STARLINK-3254,PAYLOAD,2024-03-13 22:30:34,15.08843853,8e-05,53.2171,257.1573,55.8787,304.2281,-3.6985e-06,-3.47e-06,0.0,0 STARLINK-3254,1 50204U 21125BA  24073.93789960 -.00000347  00000-0 -36985-5 0  9991,2 50204  53.2171 257.1573 0000800  55.8787 304.2281 15.08843853127229,6917.869,95.437,540.287,539.18,0.0
